PRC TEST SPACECRAFT 4   
1 67689U 26024A   26067.95738955  .00000215  00000+0  45114-4 0  9998
2 67689  49.9866  26.2090 0006072 357.4751   2.6159 14.91687512  4478
CZ-2F R/B               
1 67690U 26024B   26067.92144245  .00023619  00000+0  42975-3 0  9994
2 67690  49.9894  18.4521 0174508 271.6595  86.4383 15.34304231  4578
CZ-2F DEB               
1 67691U 26024C   26067.84521512  .02263804  11413-4  78379-3 0  9998
2 67691  49.9020   8.3885 0111843 286.7084  72.1655 16.10619037  4688
CZ-2F DEB               
1 67692U 26024D   26067.88905391  .00320800  00000+0  54487-2 0  9990
2 67692  50.3194  22.6226 0231240 276.8010  80.6691 15.25678690  4508
STARLINK-36748          
1 67693U 26025A   26067.84312893  .00372481  00000+0  23920-2 0  9997
2 67693  97.2836 179.3324 0001227  72.0918 288.0481 15.75178217  5804
STARLINK-36753          
1 67694U 26025B   26067.83536792  .00368056  00000+0  23643-2 0  9998
2 67694  97.2829 179.3420 0001624  77.3503 282.7943 15.75183550  5814
STARLINK-36750          
1 67695U 26025C   26067.91668981 -.01927462  00000+0 -13589-1 0  9996
2 67695  97.2848 179.5304 0001489 102.7547 232.5164 15.77216663  5732
STARLINK-36401          
1 67696U 26025D   26067.82160880  .00360024  00000+0  22978-2 0  9997
2 67696  97.2834 179.3621 0001447  49.6723 310.4669 15.75355213  5804
STARLINK-36704          
1 67697U 26025E   26067.89678274  .00327479  00000+0  21122-2 0  9993
2 67697  97.2844 179.4119 0002815  54.3504 305.8023 15.75201621  5815
STARLINK-36697          
1 67698U 26025F   26067.91382575 -.00724610  00000+0 -43458-2 0  9999
2 67698  97.2876 179.5461 0002788  55.6551 304.4980 15.79562873  5828
STARLINK-36716          
1 67699U 26025G   26067.86713259  .00221777  00000+0  14455-2 0  9990
2 67699  97.2831 179.4530 0002113  68.9092 291.2399 15.75253738  5825
STARLINK-36712          
1 67700U 26025H   26067.82336943  .00336983  00000+0  21716-2 0  9994
2 67700  97.2828 179.3585 0001516  76.1661 283.9773 15.75196380  5803
STARLINK-36713          
1 67701U 26025J   26067.88866616  .00293779  00000+0  19031-2 0  9998
2 67701  97.2846 179.4234 0002723  52.0751 308.0760 15.75194198  5822
STARLINK-36695          
1 67702U 26025K   26067.25550014  .00371337  00000+0  23715-2 0  9993
2 67702  97.2852 178.7532 0001417 120.6391 239.5015 15.75309702  5712
STARLINK-36630          
1 67703U 26025L   26067.91668981 -.00023221  00000+0 -15514-3 0  9997
2 67703  97.2850 179.5437 0001486  97.8125 273.1368 15.75204370  5732
STARLINK-36338          
1 67704U 26025M   26067.86925143  .00231666  00000+0  15093-2 0  9991
2 67704  97.2844 179.4478 0001740  85.9540 274.1924 15.75235097  5810
