[{"OBJECT_NAME":"PRC TEST SPACECRAFT 4","OBJECT_ID":"2026-024A","EPOCH":"2026-03-08T22:58:38.457120","MEAN_MOTION":14.91687512,"ECCENTRICITY":0.00060723,"INCLINATION":49.9866,"RA_OF_ASC_NODE":26.209,"ARG_OF_PERICENTER":357.4751,"MEAN_ANOMALY":2.6159,"EPHEMERIS_TYPE":0,"CLASSIFICATION_TYPE":"U","NORAD_CAT_ID":67689,"ELEMENT_SET_NO":999,"REV_AT_EPOCH":447,"BSTAR":4.5113822e-5,"MEAN_MOTION_DOT":2.15e-6,"MEAN_MOTION_DDOT":0},{"OBJECT_NAME":"CZ-2F R/B","OBJECT_ID":"2026-024B","EPOCH":"2026-03-08T22:06:52.627680","MEAN_MOTION":15.34304231,"ECCENTRICITY":0.0174508,"INCLINATION":49.9894,"RA_OF_ASC_NODE":18.4521,"ARG_OF_PERICENTER":271.6595,"MEAN_ANOMALY":86.4383,"EPHEMERIS_TYPE":0,"CLASSIFICATION_TYPE":"U","NORAD_CAT_ID":67690,"ELEMENT_SET_NO":999,"REV_AT_EPOCH":457,"BSTAR":0.00042974695,"MEAN_MOTION_DOT":0.00023619,"MEAN_MOTION_DDOT":0},{"OBJECT_NAME":"CZ-2F DEB","OBJECT_ID":"2026-024C","EPOCH":"2026-03-08T20:17:06.586368","MEAN_MOTION":16.10619037,"ECCENTRICITY":0.01118431,"INCLINATION":49.902,"RA_OF_ASC_NODE":8.3885,"ARG_OF_PERICENTER":286.7084,"MEAN_ANOMALY":72.1655,"EPHEMERIS_TYPE":0,"CLASSIFICATION_TYPE":"U","NORAD_CAT_ID":67691,"ELEMENT_SET_NO":999,"REV_AT_EPOCH":468,"BSTAR":0.0007837912,"MEAN_MOTION_DOT":0.02263804,"MEAN_MOTION_DDOT":1.1413185e-5},{"OBJECT_NAME":"CZ-2F DEB","OBJECT_ID":"2026-024D","EPOCH":"2026-03-08T21:20:14.257824","MEAN_MOTION":15.2567869,"ECCENTRICITY":0.02312404,"INCLINATION":50.3194,"RA_OF_ASC_NODE":22.6226,"ARG_OF_PERICENTER":276.801,"MEAN_ANOMALY":80.6691,"EPHEMERIS_TYPE":0,"CLASSIFICATION_TYPE":"U","NORAD_CAT_ID":67692,"ELEMENT_SET_NO":999,"REV_AT_EPOCH":450,"BSTAR":0.005448728,"MEAN_MOTION_DOT":0.003208,"MEAN_MOTION_DDOT":0},{"OBJECT_NAME":"STARLINK-36748","OBJECT_ID":"2026-025A","EPOCH":"2026-03-08T20:14:06.339552","MEAN_MOTION":15.75178217,"ECCENTRICITY":0.00012275,"INCLINATION":97.2836,"RA_OF_ASC_NODE":179.3324,"ARG_OF_PERICENTER":72.0918,"MEAN_ANOMALY":288.0481,"EPHEMERIS_TYPE":0,"CLASSIFICATION_TYPE":"U","NORAD_CAT_ID":67693,"ELEMENT_SET_NO":999,"REV_AT_EPOCH":580,"BSTAR":0.0023919728,"MEAN_MOTION_DOT":0.00372481,"MEAN_MOTION_DDOT":0},{"OBJECT_NAME":"STARLINK-36753","OBJECT_ID":"2026-025B","EPOCH":"2026-03-08T20:02:55.788288","MEAN_MOTION":15.7518355,"ECCENTRICITY":0.00016247,"INCLINATION":97.2829,"RA_OF_ASC_NODE":179.342,"ARG_OF_PERICENTER":77.3503,"MEAN_ANOMALY":282.7943,"EPHEMERIS_TYPE":0,"CLASSIFICATION_TYPE":"U","NORAD_CAT_ID":67694,"ELEMENT_SET_NO":999,"REV_AT_EPOCH":581,"BSTAR":0.0023643073,"MEAN_MOTION_DOT":0.00368056,"MEAN_MOTION_DDOT":0},{"OBJECT_NAME":"STARLINK-36750","OBJECT_ID":"2026-025C","EPOCH":"2026-03-08T22:00:01.999584","MEAN_MOTION":15.77216663,"ECCENTRICITY":0.00014895,"INCLINATION":97.2848,"RA_OF_ASC_NODE":179.5304,"ARG_OF_PERICENTER":102.7547,"MEAN_ANOMALY":232.5164,"EPHEMERIS_TYPE":0,"CLASSIFICATION_TYPE":"U","NORAD_CAT_ID":67695,"ELEMENT_SET_NO":999,"REV_AT_EPOCH":573,"BSTAR":-0.013589106,"MEAN_MOTION_DOT":-0.01927462,"MEAN_MOTION_DDOT":0},{"OBJECT_NAME":"STARLINK-36401","OBJECT_ID":"2026-025D","EPOCH":"2026-03-08T19:43:07.000320","MEAN_MOTION":15.75355213,"ECCENTRICITY":0.00014472,"INCLINATION":97.2834,"RA_OF_ASC_NODE":179.3621,"ARG_OF_PERICENTER":49.6723,"MEAN_ANOMALY":310.4669,"EPHEMERIS_TYPE":0,"CLASSIFICATION_TYPE":"U","NORAD_CAT_ID":67696,"ELEMENT_SET_NO":999,"REV_AT_EPOCH":580,"BSTAR":0.0022978375,"MEAN_MOTION_DOT":0.00360024,"MEAN_MOTION_DDOT":0},{"OBJECT_NAME":"STARLINK-36704","OBJECT_ID":"2026-025E","EPOCH":"2026-03-08T21:31:22.028736","MEAN_MOTION":15.75201621,"ECCENTRICITY":0.00028153,"INCLINATION":97.2844,"RA_OF_ASC_NODE":179.4119,"ARG_OF_PERICENTER":54.3504,"MEAN_ANOMALY":305.8023,"EPHEMERIS_TYPE":0,"CLASSIFICATION_TYPE":"U","NORAD_CAT_ID":67697,"ELEMENT_SET_NO":999,"REV_AT_EPOCH":581,"BSTAR":0.0021121829,"MEAN_MOTION_DOT":0.00327479,"MEAN_MOTION_DDOT":0},{"OBJECT_NAME":"STARLINK-36697","OBJECT_ID":"2026-025F","EPOCH":"2026-03-08T21:55:54.544800","MEAN_MOTION":15.79562873,"ECCENTRICITY":0.00027882,"INCLINATION":97.2876,"RA_OF_ASC_NODE":179.5461,"ARG_OF_PERICENTER":55.6551,"MEAN_ANOMALY":304.498,"EPHEMERIS_TYPE":0,"CLASSIFICATION_TYPE":"U","NORAD_CAT_ID":67698,"ELEMENT_SET_NO":999,"REV_AT_EPOCH":582,"BSTAR":-0.0043457971,"MEAN_MOTION_DOT":-0.0072461,"MEAN_MOTION_DDOT":0},{"OBJECT_NAME":"STARLINK-36716","OBJECT_ID":"2026-025G","EPOCH":"2026-03-08T20:48:40.255776","MEAN_MOTION":15.75253738,"ECCENTRICITY":0.00021133,"INCLINATION":97.2831,"RA_OF_ASC_NODE":179.453,"ARG_OF_PERICENTER":68.9092,"MEAN_ANOMALY":291.2399,"EPHEMERIS_TYPE":0,"CLASSIFICATION_TYPE":"U","NORAD_CAT_ID":67699,"ELEMENT_SET_NO":999,"REV_AT_EPOCH":582,"BSTAR":0.0014454503,"MEAN_MOTION_DOT":0.00221777,"MEAN_MOTION_DDOT":0},{"OBJECT_NAME":"STARLINK-36712","OBJECT_ID":"2026-025H","EPOCH":"2026-03-08T19:45:39.118752","MEAN_MOTION":15.7519638,"ECCENTRICITY":0.00015168,"INCLINATION":97.2828,"RA_OF_ASC_NODE":179.3585,"ARG_OF_PERICENTER":76.1661,"MEAN_ANOMALY":283.9773,"EPHEMERIS_TYPE":0,"CLASSIFICATION_TYPE":"U","NORAD_CAT_ID":67700,"ELEMENT_SET_NO":999,"REV_AT_EPOCH":580,"BSTAR":0.0021715605,"MEAN_MOTION_DOT":0.00336983,"MEAN_MOTION_DDOT":0},{"OBJECT_NAME":"STARLINK-36713","OBJECT_ID":"2026-025J","EPOCH":"2026-03-08T21:19:40.756224","MEAN_MOTION":15.75194198,"ECCENTRICITY":0.00027231,"INCLINATION":97.2846,"RA_OF_ASC_NODE":179.4234,"ARG_OF_PERICENTER":52.0751,"MEAN_ANOMALY":308.076,"EPHEMERIS_TYPE":0,"CLASSIFICATION_TYPE":"U","NORAD_CAT_ID":67701,"ELEMENT_SET_NO":999,"REV_AT_EPOCH":582,"BSTAR":0.0019030833,"MEAN_MOTION_DOT":0.00293779,"MEAN_MOTION_DDOT":0},{"OBJECT_NAME":"STARLINK-36695","OBJECT_ID":"2026-025K","EPOCH":"2026-03-08T06:07:55.212096","MEAN_MOTION":15.75309702,"ECCENTRICITY":0.00014178,"INCLINATION":97.2852,"RA_OF_ASC_NODE":178.7532,"ARG_OF_PERICENTER":120.6391,"MEAN_ANOMALY":239.5015,"EPHEMERIS_TYPE":0,"CLASSIFICATION_TYPE":"U","NORAD_CAT_ID":67702,"ELEMENT_SET_NO":999,"REV_AT_EPOCH":571,"BSTAR":0.0023714841,"MEAN_MOTION_DOT":0.00371337,"MEAN_MOTION_DDOT":0},{"OBJECT_NAME":"STARLINK-36630","OBJECT_ID":"2026-025L","EPOCH":"2026-03-08T22:00:01.999584","MEAN_MOTION":15.7520437,"ECCENTRICITY":0.00014867,"INCLINATION":97.285,"RA_OF_ASC_NODE":179.5437,"ARG_OF_PERICENTER":97.8125,"MEAN_ANOMALY":273.1368,"EPHEMERIS_TYPE":0,"CLASSIFICATION_TYPE":"U","NORAD_CAT_ID":67703,"ELEMENT_SET_NO":999,"REV_AT_EPOCH":573,"BSTAR":-0.00015513603,"MEAN_MOTION_DOT":-0.00023221,"MEAN_MOTION_DDOT":0},{"OBJECT_NAME":"STARLINK-36338","OBJECT_ID":"2026-025M","EPOCH":"2026-03-08T20:51:43.323552","MEAN_MOTION":15.75235097,"ECCENTRICITY":0.00017404,"INCLINATION":97.2844,"RA_OF_ASC_NODE":179.4478,"ARG_OF_PERICENTER":85.954,"MEAN_ANOMALY":274.1924,"EPHEMERIS_TYPE":0,"CLASSIFICATION_TYPE":"U","NORAD_CAT_ID":67704,"ELEMENT_SET_NO":999,"REV_AT_EPOCH":581,"BSTAR":0.0015093449,"MEAN_MOTION_DOT":0.00231666,"MEAN_MOTION_DDOT":0}]
